$$SOE
2460721.500000000, A.D. 2025-Feb-15 00:00:00.0000, -2.733763334132486E+07, -3.484098318393472E+08, -2.571241666934980E+07,
2460728.500000000, A.D. 2025-Feb-22 00:00:00.0000, -1.548886046407527E+07, -3.499926796222640E+08, -2.631233917448382E+07,
2460735.500000000, A.D. 2025-Mar-01 00:00:00.0000, -3.622728866123111E+06, -3.511838039370517E+08, -2.688280781100863E+07,
2460742.500000000, A.D. 2025-Mar-08 00:00:00.0000, 8.247450171214860E+06, -3.519849018553699E+08, -2.742341629932654E+07,
2460749.500000000, A.D. 2025-Mar-15 00:00:00.0000, 2.010856682496209E+07, -3.523981213947195E+08, -2.793380128594482E+07,
2460756.500000000, A.D. 2025-Mar-22 00:00:00.0000, 3.194772492853861E+07, -3.524260444566832E+08, -2.841364140055081E+07,
2460763.500000000, A.D. 2025-Mar-29 00:00:00.0000, 4.375225430511350E+07, -3.520716717798760E+08, -2.886265655360979E+07,
2460770.500000000, A.D. 2025-Apr-05 00:00:00.0000, 5.550972359094744E+07, -3.513384068554372E+08, -2.928060725602007E+07,
2460777.500000000, A.D. 2025-Apr-12 00:00:00.0000, 6.720795165602532E+07, -3.502300387811049E+08, -2.966729378347512E+07,
2460784.500000000, A.D. 2025-Apr-19 00:00:00.0000, 7.883501747233494E+07, -3.487507250084233E+08, -3.002255524784176E+07,
2460791.500000000, A.D. 2025-Apr-26 00:00:00.0000, 9.037926874267255E+07, -3.469049742535444E+08, -3.034626862422068E+07,
2460798.500000000, A.D. 2025-May-03 00:00:00.0000, 1.018293294475449E+08, -3.446976296140087E+08, -3.063834774936019E+07,
2460805.500000000, A.D. 2025-May-10 00:00:00.0000, 1.131741063850404E+08, -3.421338519382313E+08, -3.089874229979561E+07,
2460812.500000000, A.D. 2025-May-17 00:00:00.0000, 1.244027947891280E+08, -3.392191035389901E+08, -3.112743676259580E+07,
2460819.500000000, A.D. 2025-May-24 00:00:00.0000, 1.355048832498160E+08, -3.359591323519331E+08, -3.132444942481042E+07,
2460826.500000000, A.D. 2025-May-31 00:00:00.0000, 1.464701584008751E+08, -3.323599562694774E+08, -3.148983139935683E+07,
2460833.500000000, A.D. 2025-Jun-07 00:00:00.0000, 1.572887090204875E+08, -3.284278464782006E+08, -3.162366555595273E+07,
2460840.500000000, A.D. 2025-Jun-14 00:00:00.0000, 1.679509272282723E+08, -3.241693104897861E+08, -3.172606519807015E+07,
2460847.500000000, A.D. 2025-Jun-21 00:00:00.0000, 1.784475080481698E+08, -3.195910781545830E+08, -3.179717286859784E+07,
2460854.500000000, A.D. 2025-Jun-28 00:00:00.0000, 1.887694505222658E+08, -3.147000889135545E+08, -3.183715943154354E+07,
2460861.500000000, A.D. 2025-Jul-05 00:00:00.0000, 1.989080589133844E+08, -3.095034781563367E+08, -3.184622311915521E+07,
2460868.500000000, A.D. 2025-Jul-12 00:00:00.0000, 2.088549428538173E+08, -3.040085635118610E+08, -3.182458850482719E+07,
2460875.500000000, A.D. 2025-Jul-19 00:00:00.0000, 2.186020166733553E+08, -2.982228316607999E+08, -3.177250546878073E+07,
2460882.500000000, A.D. 2025-Jul-26 00:00:00.0000, 2.281414981576526E+08, -2.921539257338475E+08, -3.169024818206033E+07,
2460889.500000000, A.D. 2025-Aug-02 00:00:00.0000, 2.374659068420030E+08, -2.858096332762375E+08, -3.157811411412759E+07,
2460896.500000000, A.D. 2025-Aug-09 00:00:00.0000, 2.465680619025452E+08, -2.791978747906935E+08, -3.143642306810941E+07,
2460903.500000000, A.D. 2025-Aug-16 00:00:00.0000, 2.554410797602353E+08, -2.723266929157209E+08, -3.126551625660111E+07,
2460910.500000000, A.D. 2025-Aug-23 00:00:00.0000, 2.640783717302380E+08, -2.652042422149253E+08, -3.106575544445355E+07,
2460917.500000000, A.D. 2025-Aug-30 00:00:00.0000, 2.724736420867807E+08, -2.578387788578236E+08, -3.083752213166139E+07,
2460924.500000000, A.D. 2025-Sep-06 00:00:00.0000, 2.806208851634714E+08, -2.502386491889141E+08, -3.058121656589288E+07,
2460931.500000000, A.D. 2025-Sep-13 00:00:00.0000, 2.885143798503143E+08, -2.424122796624574E+08, -3.029725663528872E+07,
2460938.500000000, A.D. 2025-Sep-20 00:00:00.0000, 2.961486847890669E+08, -2.343681697769368E+08, -2.998607707659560E+07,
2460945.500000000, A.D. 2025-Sep-27 00:00:00.0000, 3.035186353541467E+08, -2.261148848861925E+08, -2.964812884167697E+07,
2460952.500000000, A.D. 2025-Oct-04 00:00:00.0000, 3.106193404298142E+08, -2.176610483371348E+08, -2.928387839340661E+07,
2460959.500000000, A.D. 2025-Oct-11 00:00:00.0000, 3.174461786347634E+08, -2.090153338649472E+08, -2.889380697357491E+07,
2460966.500000000, A.D. 2025-Oct-18 00:00:00.0000, 3.239947943006053E+08, -2.001864585065590E+08, -2.847840989097160E+07,
2460973.500000000, A.D. 2025-Oct-25 00:00:00.0000, 3.302610933652205E+08, -1.911831760068737E+08, -2.803819584124604E+07,
2460980.500000000, A.D. 2025-Nov-01 00:00:00.0000, 3.362412392404945E+08, -1.820142706874798E+08, -2.757368626061156E+07,
2460987.500000000, A.D. 2025-Nov-08 00:00:00.0000, 3.419316487070935E+08, -1.726885517944278E+08, -2.708541471885333E+07,
2460994.500000000, A.D. 2025-Nov-15 00:00:00.0000, 3.473289879994967E+08, -1.632148483679935E+08, -2.657392636966759E+07,
2461001.500000000, A.D. 2025-Nov-22 00:00:00.0000, 3.524301694979686E+08, -1.536020043966522E+08, -2.603977747685559E+07,
2461008.500000000, A.D. 2025-Nov-29 00:00:00.0000, 3.572323488905561E+08, -1.438588731028295E+08, -2.548353490913529E+07,
2461015.500000000, A.D. 2025-Dec-06 00:00:00.0000, 3.617329205446258E+08, -1.339943104830150E+08, -2.490577540550264E+07,
2461022.500000000, A.D. 2025-Dec-13 00:00:00.0000, 3.659295115326607E+08, -1.240171714596202E+08, -2.430708492594437E+07,
2461029.500000000, A.D. 2025-Dec-20 00:00:00.0000, 3.698199778129811E+08, -1.139363076047194E+08, -2.368805832359129E+07,
2461036.500000000, A.D. 2025-Dec-27 00:00:00.0000, 3.734024015010508E+08, -1.037605638272332E+08, -2.304929902729748E+07,
2461043.500000000, A.D. 2026-Jan-03 00:00:00.0000, 3.766750877821633E+08, -9.349877462356812E+07, -2.239141865037386E+07,
2461050.500000000, A.D. 2026-Jan-10 00:00:00.0000, 3.796365615839435E+08, -8.315976055544989E+07, -2.171503659022604E+07,
2461057.500000000, A.D. 2026-Jan-17 00:00:00.0000, 3.822855642488925E+08, -7.275232503124520E+07, -2.102077964684722E+07,
2461064.500000000, A.D. 2026-Jan-24 00:00:00.0000, 3.846210502920943E+08, -6.228525135298674E+07, -2.030928166454746E+07,
2461071.500000000, A.D. 2026-Jan-31 00:00:00.0000, 3.866421842744349E+08, -5.176730002205196E+07, -1.958118319873822E+07,
2461078.500000000, A.D. 2026-Feb-07 00:00:00.0000, 3.883483378588699E+08, -4.120720634781478E+07, -1.883713121714993E+07,
2461085.500000000, A.D. 2026-Feb-14 00:00:00.0000, 3.897390873057868E+08, -3.061367836313666E+07, -1.807777885898575E+07,
2461092.500000000, A.D. 2026-Feb-21 00:00:00.0000, 3.908142117931800E+08, -1.999539445726024E+07, -1.730378523927911E+07,
2461099.500000000, A.D. 2026-Feb-28 00:00:00.0000, 3.915736914751703E+08, -9.360999556974938E+06, -1.651581510336971E+07,
2461106.500000000, A.D. 2026-Mar-07 00:00:00.0000, 3.920177032232305E+08, 1.280898208796379E+06, -1.571453830101456E+07,
2461113.500000000, A.D. 2026-Mar-14 00:00:00.0000, 3.921466168268830E+08, 1.192172804147603E+07, -1.490062952470613E+07,
2461120.500000000, A.D. 2026-Mar-21 00:00:00.0000, 3.919609934372928E+08, 2.255295711560733E+07, -1.407476823809340E+07,
2461127.500000000, A.D. 2026-Mar-28 00:00:00.0000, 3.914615842491150E+08, 3.316609237444776E+07, -1.323763852519384E+07,
2461134.500000000, A.D. 2026-Apr-04 00:00:00.0000, 3.906493288218831E+08, 4.375268252312085E+07, -1.238992888295080E+07,
2461141.500000000, A.D. 2026-Apr-11 00:00:00.0000, 3.895253533168632E+08, 5.430431986841107E+07, -1.153233201061133E+07,
2461148.500000000, A.D. 2026-Apr-18 00:00:00.0000, 3.880909688082249E+08, 6.481264200794381E+07, -1.066554460996368E+07,
2461155.500000000, A.D. 2026-Apr-25 00:00:00.0000, 3.863476697129027E+08, 7.526933339372009E+07, -9.790267198304940E+06,
2461162.500000000, A.D. 2026-May-02 00:00:00.0000, 3.842971323684184E+08, 8.566612675121163E+07, -8.907203938261826E+06,
2461169.500000000, A.D. 2026-May-09 00:00:00.0000, 3.819412138823580E+08, 9.599480429845460E+07, -8.017062500261534E+06,
2461176.500000000, A.D. 2026-May-16 00:00:00.0000, 3.792819516300390E+08, 1.062471989128994E+08, -7.120553980143368E+06,
2461183.500000000, A.D. 2026-May-23 00:00:00.0000, 3.763215634472574E+08, 1.164151962773811E+08, -6.218392792301655E+06,
2461190.500000000, A.D. 2026-May-30 00:00:00.0000, 3.730624464350589E+08, 1.264907383375127E+08, -5.311296320448235E+06,
2461197.500000000, A.D. 2026-Jun-06 00:00:00.0000, 3.695071740614690E+08, 1.364658248094518E+08, -4.399984563389011E+06,
2461204.500000000, A.D. 2026-Jun-13 00:00:00.0000, 3.656584952254776E+08, 1.463325129442503E+08, -3.485180095380917E+06,
2461211.500000000, A.D. 2026-Jun-20 00:00:00.0000, 3.615193347760279E+08, 1.560829184833636E+08, -2.567608055441886E+06,
2461218.500000000, A.D. 2026-Jun-27 00:00:00.0000, 3.570927937829702E+08, 1.657092174759711E+08, -1.647996036898106E+06,
2461225.500000000, A.D. 2026-Jul-04 00:00:00.0000, 3.523821495564852E+08, 1.752036481934579E+08, -7.270739398314655E+05,
2461232.500000000, A.D. 2026-Jul-11 00:00:00.0000, 3.473908556652222E+08, 1.845585130189368E+08, 1.944261801205724E+05,
2461239.500000000, A.D. 2026-Jul-18 00:00:00.0000, 3.421225420416689E+08, 1.937661803471722E+08, 1.115770260845587E+06,
2461246.500000000, A.D. 2026-Jul-25 00:00:00.0000, 3.365810151945722E+08, 2.028190865072758E+08, 2.036222379390195E+06,
2461253.500000000, A.D. 2026-Aug-01 00:00:00.0000, 3.307702585716311E+08, 2.117097376698669E+08, 2.955044886573359E+06,
2461260.500000000, A.D. 2026-Aug-08 00:00:00.0000, 3.246944332827740E+08, 2.204307117128395E+08, 3.871498508772060E+06,
2461267.500000000, A.D. 2026-Aug-15 00:00:00.0000, 3.183578795945383E+08, 2.289746605049468E+08, 4.784842416347116E+06,
2461274.500000000, A.D. 2026-Aug-22 00:00:00.0000, 3.117651184262279E+08, 2.373343138349113E+08, 5.694334428912491E+06,
2461281.500000000, A.D. 2026-Aug-29 00:00:00.0000, 3.049208505477344E+08, 2.455024836238320E+08, 6.599231456450075E+06,
2461288.500000000, A.D. 2026-Sep-05 00:00:00.0000, 2.978299556088339E+08, 2.534720655668497E+08, 7.498789747646302E+06,
$$EOE